NORAD_CAT_ID,OBJECT_NAME,OBJECT_TYPE,EPOCH,MEAN_MOTION,ECCENTRICITY,INCLINATION,RA_OF_ASC_NODE,ARG_OF_PERICENTER,MEAN_ANOMALY,BSTAR,MEAN_MOTION_DOT,MEAN_MOTION_DDOT,TLE_LINE0,TLE_LINE1,TLE_LINE2,SEMIMAJOR_AXIS,PERIOD,APOGEE,PERIGEE,DECAYED
50809.0,STARLINK-3232,PAYLOAD,2023-06-19 08:21:22,15.08836866,9.79e-05,53.2173,302.8945,105.8391,254.2709,0.00026167,3.879e-05,0.0,0 STARLINK-3232,1 50809U 22001G   23170.34817531  .00003879  00000-0  26167-3 0  9994,2 50809  53.2173 302.8945 0000979 105.8391 254.2709 15.08836866 81715,6917.89,95.438,540.432,539.078,0.0
50809.0,STARLINK-3232,PAYLOAD,2023-06-20 09:47:32,15.088405,8.66e-05,53.2173,298.1373,71.2392,288.8694,-1.5105e-05,-5.28e-06,0.0,0 STARLINK-3232,1 50809U 22001G   23171.40801540 -.00000528  00000-0 -15105-4 0  9996,2 50809  53.2173 298.1373 0000866  71.2392 288.8694 15.08840500 81872,6917.879,95.438,540.343,539.145,0.0
50809.0,STARLINK-3232,PAYLOAD,2023-06-20 17:44:27,15.08849774,7.59e-05,53.2171,296.6495,84.7129,275.395,3.5125e-05,2.72e-06,0.0,0 STARLINK-3232,1 50809U 22001G   23171.73921091  .00000272  00000-0  35125-4 0  9994,2 50809  53.2171 296.6495 0000759  84.7129 275.3950 15.08849774 81920,6917.851,95.437,540.241,539.19,0.0
50809.0,STARLINK-3232,PAYLOAD,2023-06-21 01:41:23,15.08843993,7.97e-05,53.2167,295.1621,83.3565,276.7518,-2.3674e-06,-3.25e-06,0.0,0 STARLINK-3232,1 50809U 22001G   23172.07041447 -.00000325  00000-0 -23674-5 0  9998,2 50809  53.2167 295.1621 0000797  83.3565 276.7518 15.08843993 81978,6917.868,95.437,540.285,539.182,0.0
50809.0,STARLINK-3232,PAYLOAD,2023-06-21 14:24:28,15.0884308,7.05e-05,53.2155,292.7826,64.7249,295.3816,3.4138e-05,2.56e-06,0.0,0 STARLINK-3232,1 50809U 22001G   23172.60033438  .00000256  00000-0  34138-4 0  9995,2 50809  53.2155 292.7826 0000705  64.7249 295.3816 15.08843080 80778,6917.871,95.437,540.224,539.248,0.0
50809.0,STARLINK-3232,PAYLOAD,2023-06-22 07:53:43,15.08839537,9.89e-05,53.2158,289.5126,70.4049,289.705,5.9078e-05,6.53e-06,0.0,0 STARLINK-3232,1 50809U 22001G   23173.32897728  .00000653  00000-0  59078-4 0  9996,2 50809  53.2158 289.5126 0000989  70.4049 289.7050 15.08839537 82168,6917.882,95.438,540.431,539.063,0.0
50809.0,STARLINK-3232,PAYLOAD,2023-06-23 14:06:02,15.08846325,7.5e-05,53.2165,283.8626,77.8602,282.2475,0.00013871,1.921e-05,0.0,0 STARLINK-3232,1 50809U 22001G   23174.58753062  .00001921  00000-0  13871-3 0  9996,2 50809  53.2165 283.8626 0000750  77.8602 282.2475 15.08846325 82353,6917.861,95.437,540.245,539.207,0.0
50809.0,STARLINK-3232,PAYLOAD,2023-06-24 07:35:17,15.08839882,6.62e-05,53.2166,280.5908,74.6884,285.4181,5.1098e-05,5.26e-06,0.0,0 STARLINK-3232,1 50809U 22001G   23175.31617759  .00000526  00000-0  51098-4 0  9994,2 50809  53.2166 280.5908 0000662  74.6884 285.4181 15.08839882 82461,6917.881,95.438,540.204,539.288,0.0
50809.0,STARLINK-3232,PAYLOAD,2023-06-25 15:23:00,15.08844873,9.33e-05,53.2182,274.6464,95.1542,264.9556,5.1025e-05,5.25e-06,0.0,0 STARLINK-3232,1 50809U 22001G   23176.64097507  .00000525  00000-0  51025-4 0  9993,2 50809  53.2182 274.6464 0000933  95.1542 264.9556 15.08844873 82666,6917.865,95.437,540.376,539.085,0.0
50809.0,STARLINK-3232,PAYLOAD,2023-06-26 07:16:52,15.088329,0.000106,53.2168,271.6699,90.3098,269.8016,1.4712e-05,-5.4e-07,0.0,0 STARLINK-3232,1 50809U 22001G   23177.30338694 -.00000054  00000-0  14712-4 0  9992,2 50809  53.2168 271.6699 0001060  90.3098 269.8016 15.08832900 82766,6917.902,95.438,540.5,539.034,0.0
50809.0,STARLINK-3232,PAYLOAD,2023-06-26 16:49:11,15.08839265,9.88e-05,53.2173,269.8856,91.9083,268.2022,5.7879e-05,6.33e-06,0.0,0 STARLINK-3232,1 50809U 22001G   23177.70082245  .00000633  00000-0  57879-4 0  9997,2 50809  53.2173 269.8856 0000988  91.9083 268.2022 15.08839265 82823,6917.883,95.438,540.431,539.064,0.0
50809.0,STARLINK-3232,PAYLOAD,2023-06-27 13:29:11,15.08849481,0.0001091,53.217,266.0197,102.5077,257.6037,7.5123e-05,9.08e-06,0.0,0 STARLINK-3232,1 50809U 22001G   23178.56193681  .00000908  00000-0  75123-4 0  9996,2 50809  53.2170 266.0197 0001091 102.5077 257.6037 15.08849481 82958,6917.851,95.437,540.471,538.962,0.0
50809.0,STARLINK-3232,PAYLOAD,2023-06-27 23:01:30,15.08844066,8.69e-05,53.2166,264.2346,81.6345,278.4745,-5.7458e-07,-2.97e-06,0.0,0 STARLINK-3232,1 50809U 22001G   23178.95938080 -.00000297  00000-0 -57458-6 0  9995,2 50809  53.2166 264.2346 0000869  81.6345 278.4745 15.08844066 83015,6917.868,95.437,540.334,539.132,0.0
50809.0,STARLINK-3232,PAYLOAD,2023-06-28 10:09:12,15.0883671,8.97e-05,53.2154,262.154,91.476,268.6335,6.2845e-05,7.13e-06,0.0,0 STARLINK-3232,1 50809U 22001G   23179.42306626  .00000713  00000-0  62845-4 0  9998,2 50809  53.2154 262.1540 0000897  91.4760 268.6335 15.08836710 83086,6917.89,95.438,540.376,539.135,0.0
50809.0,STARLINK-3232,PAYLOAD,2023-06-29 09:59:59,15.08845144,8.02e-05,53.2163,257.6948,82.9137,277.1947,7.1816e-05,8.56e-06,0.0,0 STARLINK-3232,1 50809U 22001G   23180.41665986  .00000856  00000-0  71816-4 0  9992,2 50809  53.2163 257.6948 0000802  82.9137 277.1947 15.08845144 83238,6917.865,95.437,540.284,539.175,0.0
50809.0,STARLINK-3232,PAYLOAD,2023-07-01 09:41:34,15.0883479,8.94e-05,53.2161,248.7745,79.8819,280.2274,-3.9675e-05,-9.19e-06,0.0,0 STARLINK-3232,1 50809U 22001G   23182.40386861 -.00000919  00000-0 -39675-4 0  9994,2 50809  53.2161 248.7745 0000894  79.8819 280.2274 15.08834790 83531,6917.896,95.438,540.38,539.143,0.0
50809.0,STARLINK-3232,PAYLOAD,2023-07-02 11:07:44,15.08837863,8.98e-05,53.2164,244.0178,82.6747,277.4347,8.9237e-05,1.133e-05,0.0,0 STARLINK-3232,1 50809U 22001G   23183.46370395  .00001133  00000-0  89237-4 0  9992,2 50809  53.2164 244.0178 0000898  82.6747 277.4347 15.08837863 83699,6917.887,95.438,540.373,539.131,0.0
50809.0,STARLINK-3232,PAYLOAD,2023-07-03 12:33:57,15.0879577,0.0001318,53.2163,239.2592,96.2158,263.8984,-0.00036077,-6.018e-05,0.0,0 STARLINK-3232,1 50809U 22001G   23184.52358412 -.00006018  00000-0 -36077-3 0  9998,2 50809  53.2163 239.2592 0001318  96.2158 263.8984 15.08795770 83853,6918.016,95.44,540.792,538.969,0.0
50809.0,STARLINK-3232,PAYLOAD,2023-07-04 02:52:22,15.08835379,8.91e-05,53.2159,236.582,78.435,281.6743,2.5893e-05,1.24e-06,0.0,0 STARLINK-3232,1 50809U 22001G   23185.11971017  .00000124  00000-0  25893-4 0  9991,2 50809  53.2159 236.5820 0000891  78.4350 281.6743 15.08835379 83944,6917.895,95.438,540.376,539.143,0.0
50809.0,STARLINK-3232,PAYLOAD,2023-07-05 09:04:42,15.0884055,9.56e-05,53.2157,230.9318,85.1456,274.9646,3.8239e-05,3.21e-06,0.0,0 STARLINK-3232,1 50809U 22001G   23186.37826727  .00000321  00000-0  38239-4 0  9994,2 50809  53.2157 230.9318 0000956  85.1456 274.9646 15.08840550 84132,6917.879,95.438,540.405,539.082,0.0
50809.0,STARLINK-3232,PAYLOAD,2023-07-06 12:06:15,15.08842347,9.56e-05,53.2155,225.8765,84.6985,275.4116,6.8746e-05,8.07e-06,0.0,0 STARLINK-3232,1 50809U 22001G   23187.50434527  .00000807  00000-0  68746-4 0  9998,2 50809  53.2155 225.8765 0000956  84.6985 275.4116 15.08842347 84303,6917.873,95.437,540.4,539.077,0.0
50809.0,STARLINK-3232,PAYLOAD,2023-07-07 02:24:44,15.08826275,7.55e-05,53.2156,223.2006,84.8517,275.2562,-2.5827e-05,-6.98e-06,0.0,0 STARLINK-3232,1 50809U 22001G   23188.10051919 -.00000698  00000-0 -25827-4 0  9998,2 50809  53.2156 223.2006 0000755  84.8517 275.2562 15.08826275 84398,6917.922,95.438,540.31,539.265,0.0
50809.0,STARLINK-3232,PAYLOAD,2023-07-08 08:37:04,15.08832105,0.0001003,53.2153,217.5502,80.7713,279.3393,-5.34e-07,-2.96e-06,0.0,0 STARLINK-3232,1 50809U 22001G   23189.35908315 -.00000296  00000-0 -53400-6 0  9991,2 50809  53.2153 217.5502 0001003  80.7713 279.3393 15.08832105 84589,6917.905,95.438,540.463,539.076,0.0
50809.0,STARLINK-3232,PAYLOAD,2023-07-10 01:57:06,15.0883943,9.92e-05,53.2154,209.8187,71.503,288.607,9.7885e-05,1.27e-05,0.0,0 STARLINK-3232,1 50809U 22001G   23191.08132246  .00001270  00000-0  97885-4 0  9990,2 50809  53.2154 209.8187 0000992  71.5030 288.6070 15.08839430 84841,6917.882,95.438,540.433,539.061,0.0
50809.0,STARLINK-3232,PAYLOAD,2023-07-11 17:41:44,15.08844462,0.0001033,53.2154,202.3844,68.8102,291.3001,3.1757e-05,2.18e-06,0.0,0 STARLINK-3232,1 50809U 22001G   23192.73731722  .00000218  00000-0  31757-4 0  9994,2 50809  53.2154 202.3844 0001033  68.8102 291.3001 15.08844462 85099,6917.867,95.437,540.446,539.017,0.0
50809.0,STARLINK-3232,PAYLOAD,2023-07-12 00:03:17,15.0883934,0.0001054,53.2154,201.195,71.1177,288.9929,-3.1501e-05,-7.89e-06,0.0,0 STARLINK-3232,1 50809U 22001G   23193.00228191 -.00000789  00000-0 -31501-4 0  9998,2 50809  53.2154 201.1950 0001054  71.1177 288.9929 15.08839340 85131,6917.882,95.438,540.477,539.018,0.0
50809.0,STARLINK-3232,PAYLOAD,2023-07-13 17:23:18,15.08842691,0.0001143,53.216,193.4638,73.5507,286.5611,2.1838e-05,6e-07,0.0,0 STARLINK-3232,1 50809U 22001G   23194.72451443  .00000060  00000-0  21838-4 0  9998,2 50809  53.2160 193.4638 0001143  73.5507 286.5611 15.08842691 85399,6917.872,95.437,540.528,538.946,0.0
50809.0,STARLINK-3232,PAYLOAD,2023-07-14 23:35:37,15.08836388,0.0001147,53.2159,187.8137,75.9572,284.1548,5.4489e-05,5.79e-06,0.0,0 STARLINK-3232,1 50809U 22001G   23195.98307706  .00000579  00000-0  54489-4 0  9992,2 50809  53.2159 187.8137 0001147  75.9572 284.1548 15.08836388 85580,6917.891,95.438,540.55,538.963,0.0
50809.0,STARLINK-3232,PAYLOAD,2023-07-16 02:37:11,15.08837674,0.000115,53.2154,182.7573,82.419,277.6933,1.6065e-05,-3.2e-07,0.0,0 STARLINK-3232,1 50809U 22001G   23197.10915707 -.00000032  00000-0  16065-4 0  9997,2 50809  53.2154 182.7573 0001150  82.4190 277.6933 15.08837674 85759,6917.887,95.438,540.548,538.957,0.0
50809.0,STARLINK-3232,PAYLOAD,2023-07-17 15:11:03,15.08836733,0.0001158,53.2158,175.918,80.8419,279.2704,3.2122e-05,2.23e-06,0.0,0 STARLINK-3232,1 50809U 22001G   23198.63267973  .00000223  00000-0  32122-4 0  9994,2 50809  53.2158 175.9180 0001158  80.8419 279.2704 15.08836733 85989,6917.89,95.438,540.556,538.954,0.0
